{
  "type": "FeatureCollection",
  "features": [
    {
      "type": "Feature",
      "properties": {
        "norad_id": 44794,
        "name": "BEIDOU-3 M21 (C43)",
        "group": "beidou",
        "lat": 22.512952476951394,
        "lon": -36.70639203304033,
        "alt_km": 21514.070541230714,
        "timestamp": "2025-12-27T10:28:59.060201+00:00",
        "meta_object_name": "BEIDOU-3 M21 (C43)",
        "meta_object_id": "2019-078B",
        "meta_epoch": "2025-12-25T05:55:32.884896",
        "meta_mean_motion": 1.86227898,
        "meta_eccentricity": 0.0004304,
        "meta_inclination": 54.0703,
        "meta_ra_of_asc_node": 305.9129,
        "meta_arg_of_pericenter": 12.6939,
        "meta_mean_anomaly": 347.3266,
        "meta_ephemeris_type": 0,
        "meta_classification_type": "U",
        "meta_norad_cat_id": 44794,
        "meta_element_set_no": 999,
        "meta_rev_at_epoch": 4141,
        "meta_bstar": 0,
        "meta_mean_motion_dot": -5.3e-07,
        "meta_mean_motion_ddot": 0,
        "tle_line1": "1 44794U 19078B   25359.24690839 -.00000053  00000+0  00000+0 0  9995",
        "tle_line2": "2 44794  54.0703 305.9129 0004304  12.6939 347.3266  1.86227898 41411"
      },
      "geometry": {
        "type": "Point",
        "coordinates": [
          -36.70639203304033,
          22.512952476951394
        ]
      }
    },
    {
      "type": "Feature",
      "properties": {
        "norad_id": 44864,
        "name": "BEIDOU-3 M19 (C41)",
        "group": "beidou",
        "lat": -35.2908733080349,
        "lon": -83.48135194067922,
        "alt_km": 21507.672298194775,
        "timestamp": "2025-12-27T10:28:59.060212+00:00",
        "meta_object_name": "BEIDOU-3 M19 (C41)",
        "meta_object_id": "2019-090A",
        "meta_epoch": "2025-12-27T02:26:46.358016",
        "meta_mean_motion": 1.86231443,
        "meta_eccentricity": 0.0018509,
        "meta_inclination": 56.4046,
        "meta_ra_of_asc_node": 68.4857,
        "meta_arg_of_pericenter": 285.4212,
        "meta_mean_anomaly": 74.1614,
        "meta_ephemeris_type": 0,
        "meta_classification_type": "U",
        "meta_norad_cat_id": 44864,
        "meta_element_set_no": 999,
        "meta_rev_at_epoch": 4102,
        "meta_bstar": 0,
        "meta_mean_motion_dot": -3.5e-07,
        "meta_mean_motion_ddot": 0,
        "tle_line1": "1 44864U 19090A   25361.10192544 -.00000035  00000+0  00000+0 0  9995",
        "tle_line2": "2 44864  56.4046  68.4857 0018509 285.4212  74.1614  1.86231443 41020"
      },
      "geometry": {
        "type": "Point",
        "coordinates": [
          -83.48135194067922,
          -35.2908733080349
        ]
      }
    },
    {
      "type": "Feature",
      "properties": {
        "norad_id": 44865,
        "name": "BEIDOU-3 M20 (C42)",
        "group": "beidou",
        "lat": -37.0229036821515,
        "lon": 38.47897177830002,
        "alt_km": 21490.776901573598,
        "timestamp": "2025-12-27T10:28:59.060223+00:00",
        "meta_object_name": "BEIDOU-3 M20 (C42)",
        "meta_object_id": "2019-090B",
        "meta_epoch": "2025-12-26T13:03:31.682016",
        "meta_mean_motion": 1.86231463,
        "meta_eccentricity": 0.0015612,
        "meta_inclination": 56.4057,
        "meta_ra_of_asc_node": 68.5385,
        "meta_arg_of_pericenter": 297.4355,
        "meta_mean_anomaly": 137.7791,
        "meta_ephemeris_type": 0,
        "meta_classification_type": "U",
        "meta_norad_cat_id": 44865,
        "meta_element_set_no": 999,
        "meta_rev_at_epoch": 4100,
        "meta_bstar": 0,
        "meta_mean_motion_dot": -3.2e-07,
        "meta_mean_motion_ddot": 0,
        "tle_line1": "1 44865U 19090B   25360.54411669 -.00000032  00000+0  00000+0 0  9992",
        "tle_line2": "2 44865  56.4057  68.5385 0015612 297.4355 137.7791  1.86231463 41005"
      },
      "geometry": {
        "type": "Point",
        "coordinates": [
          38.47897177830002,
          -37.0229036821515
        ]
      }
    },
    {
      "type": "Feature",
      "properties": {
        "norad_id": 45344,
        "name": "BEIDOU-3 G2 (C60)",
        "group": "beidou",
        "lat": -2.3915690878274085,
        "lon": -26.510310242648817,
        "alt_km": 35780.736306077844,
        "timestamp": "2025-12-27T10:28:59.060235+00:00",
        "meta_object_name": "BEIDOU-3 G2 (C60)",
        "meta_object_id": "2020-017A",
        "meta_epoch": "2025-12-27T03:39:38.735424",
        "meta_mean_motion": 1.00271784,
        "meta_eccentricity": 0.0002178,
        "meta_inclination": 2.5224,
        "meta_ra_of_asc_node": 44.1623,
        "meta_arg_of_pericenter": 237.3023,
        "meta_mean_anomaly": 309.3794,
        "meta_ephemeris_type": 0,
        "meta_classification_type": "U",
        "meta_norad_cat_id": 45344,
        "meta_element_set_no": 999,
        "meta_rev_at_epoch": 2153,
        "meta_bstar": 0,
        "meta_mean_motion_dot": -1.19e-06,
        "meta_mean_motion_ddot": 0,
        "tle_line1": "1 45344U 20017A   25361.15253166 -.00000119  00000+0  00000+0 0  9996",
        "tle_line2": "2 45344   2.5224  44.1623 0002178 237.3023 309.3794  1.00271784 21531"
      },
      "geometry": {
        "type": "Point",
        "coordinates": [
          -26.510310242648817,
          -2.3915690878274085
        ]
      }
    },
    {
      "type": "Feature",
      "properties": {
        "norad_id": 45807,
        "name": "BEIDOU-3 G3 (C61)",
        "group": "beidou",
        "lat": -1.8031755898558335,
        "lon": 3.896613840291269,
        "alt_km": 35760.755438201515,
        "timestamp": "2025-12-27T10:28:59.060246+00:00",
        "meta_object_name": "BEIDOU-3 G3 (C61)",
        "meta_object_id": "2020-040A",
        "meta_epoch": "2025-12-26T22:07:13.837152",
        "meta_mean_motion": 1.00266424,
        "meta_eccentricity": 0.00065872,
        "meta_inclination": 2.0233,
        "meta_ra_of_asc_node": 66.7,
        "meta_arg_of_pericenter": 308.2917,
        "meta_mean_anomaly": 162.9749,
        "meta_ephemeris_type": 0,
        "meta_classification_type": "U",
        "meta_norad_cat_id": 45807,
        "meta_element_set_no": 999,
        "meta_rev_at_epoch": 2034,
        "meta_bstar": 0,
        "meta_mean_motion_dot": -3.32e-06,
        "meta_mean_motion_ddot": 0,
        "tle_line1": "1 45807U 20040A   25360.92168793 -.00000332  00000+0  00000+0 0  9998",
        "tle_line2": "2 45807   2.0233  66.7000 0006587 308.2917 162.9749  1.00266424 20343"
      },
      "geometry": {
        "type": "Point",
        "coordinates": [
          3.896613840291269,
          -1.8031755898558335
        ]
      }
    },
    {
      "type": "Feature",
      "properties": {
        "norad_id": 56564,
        "name": "BEIDOU-3 G4 (C62)",
        "group": "beidou",
        "lat": 0.7496219094801727,
        "lon": 53.4286875613449,
        "alt_km": 35791.72852847465,
        "timestamp": "2025-12-27T10:28:59.060258+00:00",
        "meta_object_name": "BEIDOU-3 G4 (C62)",
        "meta_object_id": "2023-066A",
        "meta_epoch": "2025-12-27T04:37:38.522208",
        "meta_mean_motion": 1.00270523,
        "meta_eccentricity": 0.0002494,
        "meta_inclination": 0.785,
        "meta_ra_of_asc_node": 303.1928,
        "meta_arg_of_pericenter": 231.2375,
        "meta_mean_anomaly": 150.9549,
        "meta_ephemeris_type": 0,
        "meta_classification_type": "U",
        "meta_norad_cat_id": 56564,
        "meta_element_set_no": 999,
        "meta_rev_at_epoch": 967,
        "meta_bstar": 0,
        "meta_mean_motion_dot": -8.9e-07,
        "meta_mean_motion_ddot": 0,
        "tle_line1": "1 56564U 23066A   25361.19280697 -.00000089  00000+0  00000+0 0  9998",
        "tle_line2": "2 56564   0.7850 303.1928 0002494 231.2375 150.9549  1.00270523  9671"
      },
      "geometry": {
        "type": "Point",
        "coordinates": [
          53.4286875613449,
          0.7496219094801727
        ]
      }
    },
    {
      "type": "Feature",
      "properties": {
        "norad_id": 58654,
        "name": "BEIDOU-3 M28 (C50)",
        "group": "beidou",
        "lat": -19.766787576676766,
        "lon": 53.880161703320944,
        "alt_km": 21526.699191411313,
        "timestamp": "2025-12-27T10:28:59.060270+00:00",
        "meta_object_name": "BEIDOU-3 M28 (C50)",
        "meta_object_id": "2023-207A",
        "meta_epoch": "2025-12-26T09:34:30.666720",
        "meta_mean_motion": 1.86229622,
        "meta_eccentricity": 0.0002968,
        "meta_inclination": 55.596,
        "meta_ra_of_asc_node": 68.1388,
        "meta_arg_of_pericenter": 276.5456,
        "meta_mean_anomaly": 83.472,
        "meta_ephemeris_type": 0,
        "meta_classification_type": "U",
        "meta_norad_cat_id": 58654,
        "meta_element_set_no": 999,
        "meta_rev_at_epoch": 1362,
        "meta_bstar": 0,
        "meta_mean_motion_dot": -3.3e-07,
        "meta_mean_motion_ddot": 0,
        "tle_line1": "1 58654U 23207A   25360.39896605 -.00000033  00000+0  00000+0 0  9999",
        "tle_line2": "2 58654  55.5960  68.1388 0002968 276.5456  83.4720  1.86229622 13628"
      },
      "geometry": {
        "type": "Point",
        "coordinates": [
          53.880161703320944,
          -19.766787576676766
        ]
      }
    }
  ]
}